start=new Date('2023-03-23T00:00:00.000Z').valueOf();
sats=[{"MEAN_MOTION_DDOT":"0.0000000000000","DECAY_DATE":null,"EPOCH":"2023-03-22T10:11:21.386112","REV_AT_EPOCH":"5861","ARG_OF_PERICENTER":"104.5488","RCS_SIZE":"LARGE","TLE_LINE1":"1 51987U 22025AH  23081.42455308  .00004411  00000-0  29504-3 0  9999","GP_ID":"228632357","PERIOD":"95.437","MEAN_ELEMENT_THEORY":"SGP4","ECCENTRICITY":"0.00015560","SITE":"AFETR","NORAD_CAT_ID":"51987","SEMIMAJOR_AXIS":"6917.869","EPHEMERIS_TYPE":"0","BSTAR":"0.00029504000000","COUNTRY_CODE":"US","OBJECT_TYPE":"PAYLOAD","OBJECT_NAME":"STARLINK-3644","TLE_LINE2":"2 51987  53.2153 222.0880 0001556 104.5488 255.5676 15.08843846 58613","LAUNCH_DATE":"2022-03-09","OBJECT_ID":"2022-025AH","ELEMENT_SET_NO":"999","MEAN_ANOMALY":"255.5676","MEAN_MOTION":"15.08843846","REF_FRAME":"TEME","CLASSIFICATION_TYPE":"U","PERIAPSIS":"538.657","FILE":"3867351","CENTER_NAME":"EARTH","MEAN_MOTION_DOT":"0.00004411","APOAPSIS":"540.810","RA_OF_ASC_NODE":"222.0880","INCLINATION":"53.2153","TIME_SYSTEM":"UTC"},{"CLASSIFICATION_TYPE":"U","MEAN_MOTION":"15.08840484","REF_FRAME":"TEME","MEAN_ANOMALY":"260.7622","ELEMENT_SET_NO":"999","FILE":"3867695","PERIAPSIS":"538.858","APOAPSIS":"540.630","MEAN_MOTION_DOT":"0.00004091","CENTER_NAME":"EARTH","TIME_SYSTEM":"UTC","INCLINATION":"53.2150","RA_OF_ASC_NODE":"220.9797","TLE_LINE1":"1 51988U 22025AJ  23081.67111288  .00004091  00000-0  27496-3 0  9995","GP_ID":"228638686","ARG_OF_PERICENTER":"99.3515","RCS_SIZE":"LARGE","REV_AT_EPOCH":"5867","EPOCH":"2023-03-22T16:06:24.152832","MEAN_MOTION_DDOT":"0.0000000000000","DECAY_DATE":null,"ECCENTRICITY":"0.00012810","MEAN_ELEMENT_THEORY":"SGP4","PERIOD":"95.438","OBJECT_TYPE":"PAYLOAD","COUNTRY_CODE":"US","BSTAR":"0.00027496000000","EPHEMERIS_TYPE":"0","SEMIMAJOR_AXIS":"6917.879","SITE":"AFETR","NORAD_CAT_ID":"51988","LAUNCH_DATE":"2022-03-09","OBJECT_ID":"2022-025AJ","TLE_LINE2":"2 51988  53.2150 220.9797 0001281  99.3515 260.7622 15.08840484 58672","OBJECT_NAME":"STARLINK-3640"},{"RA_OF_ASC_NODE":"221.2074","INCLINATION":"53.2186","TIME_SYSTEM":"UTC","CENTER_NAME":"EARTH","MEAN_MOTION_DOT":"0.00000670","APOAPSIS":"540.803","PERIAPSIS":"538.676","FILE":"3867698","ELEMENT_SET_NO":"999","MEAN_ANOMALY":"252.7818","REF_FRAME":"TEME","MEAN_MOTION":"15.08841924","CLASSIFICATION_TYPE":"U","OBJECT_NAME":"STARLINK-3642","TLE_LINE2":"2 51989  53.2186 221.2074 0001537 107.3342 252.7818 15.08841924 58652","LAUNCH_DATE":"2022-03-09","OBJECT_ID":"2022-025AK","SITE":"AFETR","NORAD_CAT_ID":"51989","SEMIMAJOR_AXIS":"6917.875","EPHEMERIS_TYPE":"0","COUNTRY_CODE":"US","BSTAR":"0.00006015900000","OBJECT_TYPE":"PAYLOAD","PERIOD":"95.437","MEAN_ELEMENT_THEORY":"SGP4","ECCENTRICITY":"0.00015370","MEAN_MOTION_DDOT":"0.0000000000000","DECAY_DATE":null,"EPOCH":"2023-03-22T14:52:12.639936","REV_AT_EPOCH":"5865","RCS_SIZE":"LARGE","ARG_OF_PERICENTER":"107.3342","TLE_LINE1":"1 51989U 22025AK  23081.61959074  .00000670  00000-0  60159-4 0  9996","GP_ID":"228638703"},{"BSTAR":"0.00243940000000","COUNTRY_CODE":"US","OBJECT_TYPE":"PAYLOAD","NORAD_CAT_ID":"51990","SITE":"AFETR","SEMIMAJOR_AXIS":"6917.832","EPHEMERIS_TYPE":"0","TLE_LINE2":"2 51990  53.2150 201.3508 0001278 108.7207 251.3924 15.08855891 58924","LAUNCH_DATE":"2022-03-09","OBJECT_ID":"2022-025AL","OBJECT_NAME":"STARLINK-3657","GP_ID":"228639203","TLE_LINE1":"1 51990U 22025AL  23081.58830866  .00038766  00000-0  24394-2 0  9997","REV_AT_EPOCH":"5892","ARG_OF_PERICENTER":"108.7207","RCS_SIZE":"LARGE","EPOCH":"2023-03-22T14:07:09.868224","DECAY_DATE":null,"MEAN_MOTION_DDOT":"0.0000000000000","ECCENTRICITY":"0.00012780","MEAN_ELEMENT_THEORY":"SGP4","PERIOD":"95.437","MEAN_MOTION_DOT":"0.00038766","APOAPSIS":"540.581","CENTER_NAME":"EARTH","TIME_SYSTEM":"UTC","INCLINATION":"53.2150","RA_OF_ASC_NODE":"201.3508","REF_FRAME":"TEME","MEAN_MOTION":"15.08855891","CLASSIFICATION_TYPE":"U","MEAN_ANOMALY":"251.3924","ELEMENT_SET_NO":"999","FILE":"3867698","PERIAPSIS":"538.813"},{"CENTER_NAME":"EARTH","APOAPSIS":"540.529","MEAN_MOTION_DOT":"0.00027866","INCLINATION":"53.2155","RA_OF_ASC_NODE":"220.6501","TIME_SYSTEM":"UTC","ELEMENT_SET_NO":"999","CLASSIFICATION_TYPE":"U","MEAN_MOTION":"15.08851218","REF_FRAME":"TEME","MEAN_ANOMALY":"266.7554","PERIAPSIS":"538.893","FILE":"3867698","OBJECT_TYPE":"PAYLOAD","BSTAR":"0.00176150000000","COUNTRY_CODE":"US","EPHEMERIS_TYPE":"0","NORAD_CAT_ID":"51991","SITE":"AFETR","SEMIMAJOR_AXIS":"6917.846","OBJECT_NAME":"STARLINK-3652","OBJECT_ID":"2022-025AM","LAUNCH_DATE":"2022-03-09","TLE_LINE2":"2 51991  53.2155 220.6501 0001182  93.3573 266.7554 15.08851218 58665","EPOCH":"2023-03-22T17:52:23.166048","DECAY_DATE":null,"MEAN_MOTION_DDOT":"0.0000000000000","GP_ID":"228639199","TLE_LINE1":"1 51991U 22025AM  23081.74471257  .00027866  00000-0  17615-2 0  9998","RCS_SIZE":"LARGE","ARG_OF_PERICENTER":"93.3573","REV_AT_EPOCH":"5866","MEAN_ELEMENT_THEORY":"SGP4","PERIOD":"95.437","ECCENTRICITY":"0.00011820"},{"PERIOD":"95.437","MEAN_ELEMENT_THEORY":"SGP4","ECCENTRICITY":"0.00011640","DECAY_DATE":null,"MEAN_MOTION_DDOT":"0.0000000000000","EPOCH":"2023-03-22T15:26:38.921856","RCS_SIZE":"LARGE","ARG_OF_PERICENTER":"87.3994","REV_AT_EPOCH":"5895","GP_ID":"228638694","TLE_LINE1":"1 51992U 22025AN  23081.64350604  .00001429  00000-0  10783-3 0  9997","OBJECT_NAME":"STARLINK-3643","OBJECT_ID":"2022-025AN","LAUNCH_DATE":"2022-03-09","TLE_LINE2":"2 51992  53.2147 201.1044 0001164  87.3994 272.7131 15.08851423 58951","EPHEMERIS_TYPE":"0","SITE":"AFETR","SEMIMAJOR_AXIS":"6917.845","NORAD_CAT_ID":"51992","OBJECT_TYPE":"PAYLOAD","BSTAR":"0.00010783000000","COUNTRY_CODE":"US","PERIAPSIS":"538.905","FILE":"3867698","ELEMENT_SET_NO":"999","MEAN_ANOMALY":"272.7131","CLASSIFICATION_TYPE":"U","REF_FRAME":"TEME","MEAN_MOTION":"15.08851423","RA_OF_ASC_NODE":"201.1044","INCLINATION":"53.2147","TIME_SYSTEM":"UTC","CENTER_NAME":"EARTH","APOAPSIS":"540.516","MEAN_MOTION_DOT":"0.00001429"},{"RCS_SIZE":"LARGE","ARG_OF_PERICENTER":"73.8172","REV_AT_EPOCH":"5867","TLE_LINE1":"1 51993U 22025AP  23081.66743904  .00023868  00000-0  15110-2 0  9998","GP_ID":"228639211","DECAY_DATE":null,"MEAN_MOTION_DDOT":"0.0000000000000","EPOCH":"2023-03-22T16:01:06.733056","ECCENTRICITY":"0.00013150","PERIOD":"95.435","MEAN_ELEMENT_THEORY":"SGP4","EPHEMERIS_TYPE":"0","SEMIMAJOR_AXIS":"6917.757","SITE":"AFETR","NORAD_CAT_ID":"51993","OBJECT_TYPE":"PAYLOAD","COUNTRY_CODE":"US","BSTAR":"0.00151100000000","LAUNCH_DATE":"2022-03-09","OBJECT_ID":"2022-025AP","TLE_LINE2":"2 51993  53.2162 220.9954 0001315  73.8172 286.2964 15.08880349 58676","OBJECT_NAME":"STARLINK-3648","MEAN_ANOMALY":"286.2964","CLASSIFICATION_TYPE":"U","MEAN_MOTION":"15.08880349","REF_FRAME":"TEME","ELEMENT_SET_NO":"999","FILE":"3867708","PERIAPSIS":"538.712","APOAPSIS":"540.532","MEAN_MOTION_DOT":"0.00023868","CENTER_NAME":"EARTH","TIME_SYSTEM":"UTC","RA_OF_ASC_NODE":"220.9954","INCLINATION":"53.2162"},{"PERIAPSIS":"538.972","FILE":"3867581","ELEMENT_SET_NO":"999","CLASSIFICATION_TYPE":"U","MEAN_MOTION":"15.08850197","REF_FRAME":"TEME","MEAN_ANOMALY":"261.1188","INCLINATION":"53.2145","RA_OF_ASC_NODE":"201.4177","TIME_SYSTEM":"UTC","CENTER_NAME":"EARTH","APOAPSIS":"540.457","MEAN_MOTION_DOT":"0.00044048","MEAN_ELEMENT_THEORY":"SGP4","PERIOD":"95.437","ECCENTRICITY":"0.00010730","EPOCH":"2023-03-22T13:45:58.328928","DECAY_DATE":null,"MEAN_MOTION_DDOT":"0.0000000000000","TLE_LINE1":"1 51994U 22025AQ  23081.57359177  .00044048  00000-0  27677-2 0  9998","GP_ID":"228637862","ARG_OF_PERICENTER":"98.9926","RCS_SIZE":"LARGE","REV_AT_EPOCH":"5893","OBJECT_NAME":"STARLINK-3647","LAUNCH_DATE":"2022-03-09","OBJECT_ID":"2022-025AQ","TLE_LINE2":"2 51994  53.2145 201.4177 0001073  98.9926 261.1188 15.08850197 58932","OBJECT_TYPE":"PAYLOAD","COUNTRY_CODE":"US","BSTAR":"0.00276770000000","EPHEMERIS_TYPE":"0","SITE":"AFETR","SEMIMAJOR_AXIS":"6917.849","NORAD_CAT_ID":"51994"},{"CENTER_NAME":"EARTH","APOAPSIS":"540.436","MEAN_MOTION_DOT":"0.00003792","RA_OF_ASC_NODE":"201.0739","INCLINATION":"53.2151","TIME_SYSTEM":"UTC","ELEMENT_SET_NO":"999","MEAN_ANOMALY":"256.5815","CLASSIFICATION_TYPE":"U","REF_FRAME":"TEME","MEAN_MOTION":"15.08857387","PERIAPSIS":"538.949","FILE":"3867702","EPHEMERIS_TYPE":"0","SITE":"AFETR","SEMIMAJOR_AXIS":"6917.827","NORAD_CAT_ID":"51995","OBJECT_TYPE":"PAYLOAD","COUNTRY_CODE":"US","BSTAR":"0.00025610000000","OBJECT_NAME":"STARLINK-3636","LAUNCH_DATE":"2022-03-09","OBJECT_ID":"2022-025AR","TLE_LINE2":"2 51995  53.2151 201.0739 0001075 103.5297 256.5815 15.08857387 58928","MEAN_MOTION_DDOT":"0.0000000000000","DECAY_DATE":null,"EPOCH":"2023-03-22T15:37:14.628864","ARG_OF_PERICENTER":"103.5297","RCS_SIZE":"LARGE","REV_AT_EPOCH":"5892","GP_ID":"228639279","TLE_LINE1":"1 51995U 22025AR  23081.65086376  .00003792  00000-0  25610-3 0  9993","PERIOD":"95.436","MEAN_ELEMENT_THEORY":"SGP4","ECCENTRICITY":"0.00010750"},{"PERIOD":"95.437","MEAN_ELEMENT_THEORY":"SGP4","ECCENTRICITY":"0.00011880","DECAY_DATE":null,"MEAN_MOTION_DDOT":"0.0000000000000","EPOCH":"2023-03-22T12:05:17.228832","ARG_OF_PERICENTER":"101.9317","RCS_SIZE":"LARGE","REV_AT_EPOCH":"5891","GP_ID":"228635158","TLE_LINE1":"1 51996U 22025AS  23081.50367163  .00033426  00000-0  21078-2 0  9994","OBJECT_NAME":"STARLINK-3538","LAUNCH_DATE":"2022-03-09","OBJECT_ID":"2022-025AS","TLE_LINE2":"2 51996  53.2149 201.7309 0001188 101.9317 258.1808 15.08849879 58912","EPHEMERIS_TYPE":"0","SITE":"AFETR","SEMIMAJOR_AXIS":"6917.850","NORAD_CAT_ID":"51996","OBJECT_TYPE":"PAYLOAD","BSTAR":"0.00210780000000","COUNTRY_CODE":"US","PERIAPSIS":"538.893","FILE":"3867453","ELEMENT_SET_NO":"999","MEAN_ANOMALY":"258.1808","CLASSIFICATION_TYPE":"U","MEAN_MOTION":"15.08849879","REF_FRAME":"TEME","RA_OF_ASC_NODE":"201.7309","INCLINATION":"53.2149","TIME_SYSTEM":"UTC","CENTER_NAME":"EARTH","APOAPSIS":"540.537","MEAN_MOTION_DOT":"0.00033426"}];
